{
  "norad_id": 41860,
  "name": "GSAT0212 (GALILEO 16)",
  "history": [
    {
      "epoch": "2026-03-28T19:45:52.580736Z",
      "apogee_km": 23234.80145064656,
      "perigee_km": 23209.47367971212,
      "latitude_deg": 3.332000592992032e-05,
      "longitude_deg": -19.402999662735297,
      "height_km": 23210.84110664777,
      "semi_major_axis_km": 29600.274565179338,
      "eccentricity": 0.00042783,
      "inclination_deg": 55.4444,
      "raan_deg": 103.3032,
      "arg_perigee_deg": 336.2015,
      "mean_anomaly_deg": 23.8319,
      "mean_motion_rev_day": 1.70474393
    },
    {
      "epoch": "2026-03-31T04:04:35.126400Z",
      "apogee_km": 23234.975475729905,
      "perigee_km": 23209.285995367576,
      "latitude_deg": 1.1067662539567528e-05,
      "longitude_deg": -146.46204286256108,
      "height_km": 23210.64104029275,
      "semi_major_axis_km": 29600.26773554874,
      "eccentricity": 0.00043394,
      "inclination_deg": 55.4456,
      "raan_deg": 103.2382,
      "arg_perigee_deg": 336.5122,
      "mean_anomaly_deg": 23.5181,
      "mean_motion_rev_day": 1.70474452
    },
    {
      "epoch": "2026-04-02T12:23:16.482336Z",
      "apogee_km": 23235.02010821237,
      "perigee_km": 23209.236501116087,
      "latitude_deg": -3.320661571536629e-05,
      "longitude_deg": 86.48265174907904,
      "height_km": 23210.573270070003,
      "semi_major_axis_km": 29600.265304664226,
      "eccentricity": 0.00043553,
      "inclination_deg": 55.4472,
      "raan_deg": 103.1733,
      "arg_perigee_deg": 336.725,
      "mean_anomaly_deg": 23.293,
      "mean_motion_rev_day": 1.70474473
    },
    {
      "epoch": "2026-04-04T06:37:17.302944Z",
      "apogee_km": 23235.07896178391,
      "perigee_km": 23209.171628212833,
      "latitude_deg": -1.595514169033762e-05,
      "longitude_deg": 171.1933961422929,
      "height_km": 23210.5038423936,
      "semi_major_axis_km": 29600.26229499837,
      "eccentricity": 0.00043762,
      "inclination_deg": 55.4482,
      "raan_deg": 103.1246,
      "arg_perigee_deg": 336.7977,
      "mean_anomaly_deg": 23.2102,
      "mean_motion_rev_day": 1.70474499
    },
    {
      "epoch": "2026-04-07T05:00:39.975264Z",
      "apogee_km": 23235.224041971087,
      "perigee_km": 23209.023075334986,
      "latitude_deg": 1.607561154539827e-05,
      "longitude_deg": -167.62324605147757,
      "height_km": 23210.355496773696,
      "semi_major_axis_km": 29600.260558653034,
      "eccentricity": 0.00044258,
      "inclination_deg": 55.4503,
      "raan_deg": 103.0435,
      "arg_perigee_deg": 336.8905,
      "mean_anomaly_deg": 23.1094,
      "mean_motion_rev_day": 1.70474514
    },
    {
      "epoch": "2026-04-10T03:24:04.633920Z",
      "apogee_km": 23235.34186309623,
      "perigee_km": 23208.914746232225,
      "latitude_deg": -6.0919761690184474e-05,
      "longitude_deg": -146.44579363942648,
      "height_km": 23210.210127441944,
      "semi_major_axis_km": 29600.265304664226,
      "eccentricity": 0.0004464,
      "inclination_deg": 55.4527,
      "raan_deg": 102.9624,
      "arg_perigee_deg": 337.4113,
      "mean_anomaly_deg": 22.5943,
      "mean_motion_rev_day": 1.70474473
    },
    {
      "epoch": "2026-04-10T03:24:04.634784Z",
      "apogee_km": 23235.342455101538,
      "perigee_km": 23208.91415422692,
      "latitude_deg": -6.0193017599822876e-05,
      "longitude_deg": -146.4457967491729,
      "height_km": 23210.209581249143,
      "semi_major_axis_km": 29600.265304664226,
      "eccentricity": 0.00044642,
      "inclination_deg": 55.4527,
      "raan_deg": 102.9624,
      "arg_perigee_deg": 337.4113,
      "mean_anomaly_deg": 22.5943,
      "mean_motion_rev_day": 1.70474473
    },
    {
      "epoch": "2026-04-13T15:52:10.227072Z",
      "apogee_km": 23235.480660288536,
      "perigee_km": 23208.80488815601,
      "latitude_deg": 1.2932985409765228e-05,
      "longitude_deg": 22.96267789540362,
      "height_km": 23210.058008298703,
      "semi_major_axis_km": 29600.279774222272,
      "eccentricity": 0.0004506,
      "inclination_deg": 55.4551,
      "raan_deg": 102.8649,
      "arg_perigee_deg": 338.0161,
      "mean_anomaly_deg": 21.9957,
      "mean_motion_rev_day": 1.70474348
    },
    {
      "epoch": "2026-04-16T14:15:32.226336Z",
      "apogee_km": 23235.629753338846,
      "perigee_km": 23208.685197283863,
      "latitude_deg": -2.520151829754358e-05,
      "longitude_deg": 44.14272950385139,
      "height_km": 23209.904828841693,
      "semi_major_axis_km": 29600.294475311355,
      "eccentricity": 0.00045514,
      "inclination_deg": 55.4571,
      "raan_deg": 102.7838,
      "arg_perigee_deg": 338.4751,
      "mean_anomaly_deg": 21.5222,
      "mean_motion_rev_day": 1.70474221
    },
    {
      "epoch": "2026-04-20T02:43:33.592800Z",
      "apogee_km": 23235.821099218978,
      "perigee_km": 23208.50357496676,
      "latitude_deg": 4.278440933329948e-05,
      "longitude_deg": -146.43203812622198,
      "height_km": 23209.626819472047,
      "semi_major_axis_km": 29600.299337092867,
      "eccentricity": 0.00046144,
      "inclination_deg": 55.4596,
      "raan_deg": 102.6865,
      "arg_perigee_deg": 339.6871,
      "mean_anomaly_deg": 20.286,
      "mean_motion_rev_day": 1.70474179
    },
    {
      "epoch": "2026-04-21T06:52:54.939072Z",
      "apogee_km": 23235.82368551463,
      "perigee_km": 23208.5079340757,
      "latitude_deg": -1.3906653738394073e-05,
      "longitude_deg": 150.0415294710258,
      "height_km": 23209.61222945649,
      "semi_major_axis_km": 29600.302809795165,
      "eccentricity": 0.00046141,
      "inclination_deg": 55.4605,
      "raan_deg": 102.6541,
      "arg_perigee_deg": 339.9086,
      "mean_anomaly_deg": 20.0619,
      "mean_motion_rev_day": 1.70474149
    },
    {
      "epoch": "2026-04-24T05:16:19.805088Z",
      "apogee_km": 23235.914455587164,
      "perigee_km": 23208.41577492209,
      "latitude_deg": -4.5929037373841815e-05,
      "longitude_deg": 171.21903596621792,
      "height_km": 23209.47877772343,
      "semi_major_axis_km": 29600.302115254624,
      "eccentricity": 0.0004645,
      "inclination_deg": 55.4625,
      "raan_deg": 102.5729,
      "arg_perigee_deg": 340.5096,
      "mean_anomaly_deg": 19.4658,
      "mean_motion_rev_day": 1.70474155
    }
  ]
}